GSAT0101 (GALILEO-PFM)  
1 37846U 11060A   25190.86930172 -.00000077  00000+0  00000+0 0  9992
2 37846  57.0910 351.0434 0002529  58.0149 302.0097  1.70475859 85287
GSAT0102 (GALILEO-FM2)  
1 37847U 11060B   25191.37901359 -.00000076  00000+0  00000+0 0  9994
2 37847  57.0917 351.0299 0002339   9.5154 348.6940  1.70476022 85297
GSAT0103 (GALILEO-FM3)  
1 38857U 12055A   25191.49567537 -.00000011  00000+0  00000+0 0  9999
2 38857  55.6004 110.9320 0004194 295.7494  64.2020  1.70473578 79188
GSAT0201 (GALILEO 5)    
1 40128U 14050A   25192.77722116 -.00000035  00000+0  00000+0 0  9994
2 40128  49.2453 287.3283 1634714 166.3350 198.7428  1.85519756 72002
GSAT0202 (GALILEO 6)    
1 40129U 14050B   25193.03404335 -.00000033  00000+0  00000+0 0  9993
2 40129  49.2607 286.3997 1634914 167.1138 197.6864  1.85520402 74172
GSAT0203 (GALILEO 7)    
1 40544U 15017A   25191.82109698 -.00000075  00000+0  00000+0 0  9993
2 40544  56.8854 350.8988 0002425 249.7171 110.2557  1.70476204 63382
GSAT0204 (GALILEO 8)    
1 40545U 15017B   25192.66269652 -.00000074  00000+0  00000+0 0  9993
2 40545  56.8912 350.8931 0002493 226.8687 133.1088  1.70475807 26446
GSAT0205 (GALILEO 9)    
1 40889U 15045A   25190.67107840  .00000082  00000+0  00000+0 0  9992
2 40889  55.0586 231.0656 0002760   9.2239 350.8804  1.70473773 61175
GSAT0206 (GALILEO 10)   
1 40890U 15045B   25192.06489904  .00000083  00000+0  00000+0 0  9994
2 40890  55.0572 231.0223 0002241 297.3513  62.7217  1.70473778 61229
GSAT0209 (GALILEO 12)   
1 41174U 15079A   25191.06031843 -.00000013  00000+0  00000+0 0  9995
2 41174  55.6202 110.6568 0004688 337.6116  22.3604  1.70473809 58941
GSAT0208 (GALILEO 11)   
1 41175U 15079B   25193.04014133 -.00000005  00000+0  00000+0 0  9990
2 41175  55.6194 110.5997 0003909 345.4993  14.4960  1.70473617 59396
GSAT0211 (GALILEO 14)   
1 41549U 16030A   25193.16376856  .00000081  00000+0  00000+0 0  9992
2 41549  55.2065 231.0453 0003437 307.3191  52.7401  1.70473695 56874
GSAT0210 (GALILEO 13)   
1 41550U 16030B   25191.66180287  .00000083  00000+0  00000+0 0  9990
2 41550  55.2063 231.0849 0004377 236.2364 123.8192  1.70474001 56845
GSAT0207 (GALILEO 15)   
1 41859U 16069A   25193.11348071 -.00000005  00000+0  00000+0 0  9998
2 41859  55.2891 110.5069 0004768 322.3815  37.5922  1.70473702 53603
GSAT0212 (GALILEO 16)   
1 41860U 16069B   25192.96733562 -.00000006  00000+0  00000+0 0  9996
2 41860  55.2863 110.5066 0003806   0.2331 359.7730  1.70473801 53851
GSAT0213 (GALILEO 17)   
1 41861U 16069C   25192.16202131 -.00000009  00000+0  00000+0 0  9995
2 41861  55.2886 110.5364 0004481 303.8333  56.1240  1.70474380 53703
GSAT0214 (GALILEO 18)   
1 41862U 16069D   25192.89435098 -.00000006  00000+0  00000+0 0  9993
2 41862  55.2874 110.5091 0003522 311.3179  48.6572  1.70473942 53847
GSAT0215 (GALILEO 19)   
1 43055U 17079A   25192.79778656  .00000082  00000+0  00000+0 0  9993
2 43055  55.1842 230.8718 0003473 258.9160 101.1372  1.70474475 47185
GSAT0216 (GALILEO 20)   
1 43056U 17079B   25191.32944772  .00000084  00000+0  00000+0 0  9998
2 43056  55.1850 230.9122 0004606 269.6996  90.3457  1.70474689 47146
GSAT0217 (GALILEO 21)   
1 43057U 17079C   25193.30980672  .00000081  00000+0  00000+0 0  9995
2 43057  55.1825 230.8561 0004053 283.2597  76.7845  1.70474355 47194
GSAT0218 (GALILEO 22)   
1 43058U 17079D   25192.35672964  .00000083  00000+0  00000+0 0  9994
2 43058  55.1828 230.8798 0005154 268.0773  91.9582  1.70474550 47172
GSAT0221 (GALILEO 25)   
1 43564U 18060A   25192.84577722 -.00000074  00000+0  00000+0 0  9998
2 43564  57.2655 350.9697 0002459 283.6261  76.3447  1.70476072 43362
GSAT0222 (GALILEO 26)   
1 43565U 18060B   25193.06489265 -.00000073  00000+0  00000+0 0  9997
2 43565  57.2692 350.9665 0002527 229.1117 130.8646  1.70475798 43417
GSAT0219 (GALILEO 23)   
1 43566U 18060C   25187.42038650 -.00000085  00000+0  00000+0 0  9992
2 43566  57.2694 351.1198 0001664 305.8929  54.0959  1.70476166 43298
GSAT0220 (GALILEO 24)   
1 43567U 18060D   25192.33388748 -.00000074  00000+0  00000+0 0  9993
2 43567  57.2685 350.9886 0001838 289.0249  70.9536  1.70475952 43369
GSAT0223 (GALILEO 27)   
1 49809U 21116A   25193.33860000 -.00000073  00000+0  00000+0 0  9990
2 49809  57.2579 350.8533 0002342 180.9756 166.2706  1.70476122 22384
GSAT0224 (GALILEO 28)   
1 49810U 21116B   25189.07185029 -.00000080  00000+0  00000+0 0  9997
2 49810  57.2604 350.9660 0001743 159.4399 201.7639  1.70476422 22344
GSAT0225 (GALILEO 29)   
1 59598U 24079A   25191.72023850 -.00000011  00000+0  00000+0 0  9994
2 59598  54.9063 110.6335 0001468 260.3706 278.4090  1.70474214  7497
GSAT0227 (GALILEO 30)   
1 59600U 24079C   25187.50621458 -.00000021  00000+0  00000+0 0  9998
2 59600  54.8998 110.7504 0001598  62.0129 297.9841  1.70474133  7474
GSAT0232 (GALILEO 32)   
1 61182U 24167A   25193.19571742  .00000082  00000+0  00000+0 0  9992
2 61182  55.2943 230.6412 0005222 227.4050 219.4214  1.70474103  5080
GSAT0226 (GALILEO 31)   
1 61183U 24167B   25192.44478353  .00000083  00000+0  00000+0 0  9995
2 61183  55.2932 230.6674 0002988 222.8232 235.7376  1.70474289  5047
